sat12848
1 12848U 81094A   20046.80921204  .00000864  00000-0  48275-4 0  9991
2 12848  82.4847 162.4694 0595314 109.5840 257.0594 14.24858503928139
